LINGQIAO VIDEO A        
1 40959U 15057B   26129.21396550  .00000547  00000+0  83584-4 0  9993
2 40959  97.6626 125.9427 0017912  40.1060 320.1470 14.77338131569652
LINGQIAO VIDEO B        
1 40960U 15057C   26129.19342565  .00000295  00000+0  48077-4 0  9997
2 40960  97.6593 127.0970 0018096  40.1507 320.1037 14.77441625569699
JILIN-1                 
1 40961U 15057D   26129.15654983  .00000655  00000+0  97143-4 0  9992
2 40961  97.6513 130.4639 0017876  35.1937 325.0451 14.78095374569846
FOX-1A (AO-85)          
1 40967U 15058D   26129.17786542  .00002638  00000+0  24403-3 0  9999
2 40967  64.7764  40.1896 0128848  71.8916 289.6180 14.90739330107756
SINOD-D 1               
1 40968U 15058E   26129.03185435  .00004049  00000+0  33070-3 0  9997
2 40968  64.7768  21.5016 0117327  68.7550 292.6048 14.95599348110802
ELEKTRO-L 2             
1 41105U 15074A   26129.18252303 -.00000106  00000+0  00000+0 0  9998
2 41105   6.5968  70.9914 0001703 275.5141 291.6863  1.00273480 38116
DAMPE                   
1 41173U 15078A   26129.20766766  .00000772  00000+0  28621-4 0  9995
2 41173  97.4573 134.4859 0010933 207.6412 152.4249 15.30686616578587
ORBCOMM FM114           
1 41179U 15081A   26129.21430192  .00000241  00000+0  87389-4 0  9994
2 41179  47.0036 186.2571 0001959 351.9445   8.1409 14.58814970552066
ORBCOMM FM110           
1 41182U 15081D   26128.86058583  .00000396  00000+0  12016-3 0  9993
2 41182  47.0008 187.3812 0004019 256.3684 103.6755 14.58818682551880
ORBCOMM FM112           
1 41184U 15081F   26127.94079875  .00000619  00000+0  16807-3 0  9990
2 41184  46.9979 100.5442 0002002  22.2024 337.8948 14.58564611553079
ORBCOMM FM113           
1 41185U 15081G   26128.60177404  .00000345  00000+0  10923-3 0  9991
2 41185  46.9998  97.7833 0001628 352.8100   7.2762 14.58814281553154
ORBCOMM FM108           
1 41187U 15081J   26128.97529245  .00000589  00000+0  16103-3 0  9993
2 41187  47.0065   7.5811 0002524   7.4570 352.6353 14.58815066554356
ORBCOMM FM117           
1 41188U 15081K   26128.94073343  .00000567  00000+0  15634-3 0  9998
2 41188  47.0030   6.3903 0002925  15.2044 344.8929 14.58813075554390
ORBCOMM FM116           
1 41189U 15081L   26128.64751782  .00000243  00000+0  87741-4 0  9996
2 41189  47.0015  97.5643 0002437 261.5812  98.4797 14.58822286553167
HORYU-4                 
1 41340U 16012D   26128.94481707  .00158613  00000+0  91657-3 0  9995
2 41340  30.9892   2.4378 0005960 350.7128   9.3418 15.77027265564580
ZIYUAN 3-02 (ZY 3-02)   
1 41556U 16033A   26129.18664616  .00004305  00000+0  19439-3 0  9992
2 41556  97.3836 205.7058 0013976  74.5482 285.7296 15.21422649552054
CARTOSAT-2C             
1 41599U 16040A   26129.13480919  .00003255  00000+0  15792-3 0  9995
2 41599  97.4502 189.6427 0008168 270.3280  89.7018 15.19182537547785
LAPAN-A3                
1 41603U 16040E   26129.22189909  .00003021  00000+0  97384-4 0  9995
2 41603  97.1493 126.6576 0011342 146.6595 213.5364 15.32860681548842
GAOFEN-3                
1 41727U 16049A   26129.16282860 -.00000092  00000+0 -14616-4 0  9998
2 41727  98.4029 137.5375 0000983  73.3292 286.8006 14.42209907513021
CAS-2T & KS-1Q          
1 41847U 16066G   26129.17542683  .00000611  00000+0  95942-4 0  9999
2 41847  98.3825 205.3528 0340947 247.8597 108.6082 14.44586658499160
YUNHAI-1 01             
1 41857U 16068A   26129.19670686  .00000242  00000+0  10502-3 0  9997
2 41857  98.5852 140.5652 0006037 138.6002 221.5641 14.32711584496245
RESOURCESAT-2A          
1 41877U 16074A   26129.21968006 -.00000198  00000+0 -70147-4 0  9999
2 41877  98.7527 203.0400 0002313 160.7429 199.3836 14.21603611488761
TANSAT                  
1 41898U 16081A   26129.18273437  .00000500  00000+0  11454-3 0  9993
2 41898  98.5374 128.2901 0021864  70.6057 289.7503 14.59917960498935
JILIN-1 03              
1 41914U 17002B   26129.19633412  .00010431  00000+0  25785-3 0  9996
2 41914  97.1967 136.8586 0004255 331.9219  28.1798 15.40645567515853
CARTOSAT-2D             
1 41948U 17008A   26129.16743206  .00005078  00000+0  24438-3 0  9994
2 41948  97.4126 189.1949 0005163  29.9063 330.2466 15.19203051511651
