OBJECT_NAME,OBJECT_ID,EPOCH,MEAN_MOTION,ECCENTRICITY,INCLINATION,RA_OF_ASC_NODE,ARG_OF_PERICENTER,MEAN_ANOMALY,EPHEMERIS_TYPE,CLASSIFICATION_TYPE,NORAD_CAT_ID,ELEMENT_SET_NO,REV_AT_EPOCH,BSTAR,MEAN_MOTION_DOT,MEAN_MOTION_DDOT
LINGQIAO VIDEO A,2015-057B,2026-05-09T05:08:06.619200,14.77338131,.0017912,97.6626,125.9427,40.1060,320.1470,0,U,40959,999,56965,.83584E-4,.547E-5,0
LINGQIAO VIDEO B,2015-057C,2026-05-09T04:38:31.976160,14.77441625,.0018096,97.6593,127.0970,40.1507,320.1037,0,U,40960,999,56969,.48077E-4,.295E-5,0
JILIN-1,2015-057D,2026-05-09T03:45:25.905312,14.78095374,.0017876,97.6513,130.4639,35.1937,325.0451,0,U,40961,999,56984,.97143E-4,.655E-5,0
FOX-1A (AO-85),2015-058D,2026-05-09T04:16:07.572288,14.90739330,.0128848,64.7764,40.1896,71.8916,289.6180,0,U,40967,999,10775,.24403E-3,.2638E-4,0
SINOD-D 1,2015-058E,2026-05-09T00:45:52.215840,14.95599348,.0117327,64.7768,21.5016,68.7550,292.6048,0,U,40968,999,11080,.3307E-3,.4049E-4,0
ELEKTRO-L 2,2015-074A,2026-05-09T04:22:49.989792,1.00273480,.0001703,6.5968,70.9914,275.5141,291.6863,0,U,41105,999,3811,0,-.106E-5,0
DAMPE,2015-078A,2026-05-09T04:59:02.485824,15.30686616,.0010933,97.4573,134.4859,207.6412,152.4249,0,U,41173,999,57858,.28621E-4,.772E-5,0
ORBCOMM FM114,2015-081A,2026-05-09T05:08:35.685888,14.58814970,.0001959,47.0036,186.2571,351.9445,8.1409,0,U,41179,999,55206,.87389E-4,.241E-5,0
ORBCOMM FM110,2015-081D,2026-05-08T20:39:14.615712,14.58818682,.00040191,47.0008,187.3812,256.3684,103.6755,0,U,41182,999,55188,.12015587E-3,.396E-5,0
ORBCOMM FM112,2015-081F,2026-05-07T22:34:45.012000,14.58564611,.0002002,46.9979,100.5442,22.2024,337.8948,0,U,41184,999,55307,.16807E-3,.619E-5,0
ORBCOMM FM113,2015-081G,2026-05-08T14:26:33.277056,14.58814281,.00016288,46.9998,97.7833,352.8100,7.2762,0,U,41185,999,55315,.10923198E-3,.345E-5,0
ORBCOMM FM108,2015-081J,2026-05-08T23:24:25.267680,14.58815066,.0002524,47.0065,7.5811,7.4570,352.6353,0,U,41187,999,55435,.16103E-3,.589E-5,0
ORBCOMM FM117,2015-081K,2026-05-08T22:34:39.368352,14.58813075,.0002925,47.0030,6.3903,15.2044,344.8929,0,U,41188,999,55439,.15634E-3,.567E-5,0
ORBCOMM FM116,2015-081L,2026-05-08T15:32:25.539648,14.58822286,.00024376,47.0015,97.5643,261.5812,98.4797,0,U,41189,999,55316,.87740843E-4,.243E-5,0
HORYU-4,2016-012D,2026-05-08T22:40:32.194848,15.77027265,.000596,30.9892,2.4378,350.7128,9.3418,0,U,41340,999,56458,.91657E-3,.158613E-2,0
ZIYUAN 3-02 (ZY 3-02),2016-033A,2026-05-09T04:28:46.228224,15.21422649,.0013976,97.3836,205.7058,74.5482,285.7296,0,U,41556,999,55205,.19439E-3,.4305E-4,0
CARTOSAT-2C,2016-040A,2026-05-09T03:14:07.514016,15.19182537,.0008168,97.4502,189.6427,270.3280,89.7018,0,U,41599,999,54778,.15792E-3,.3255E-4,0
LAPAN-A3,2016-040E,2026-05-09T05:19:32.081376,15.32860681,.0011342,97.1493,126.6576,146.6595,213.5364,0,U,41603,999,54884,.97384E-4,.3021E-4,0
GAOFEN-3,2016-049A,2026-05-09T03:54:28.391040,14.42209907,.0000983,98.4029,137.5375,73.3292,286.8006,0,U,41727,999,51302,-.14616E-4,-.92E-6,0
CAS-2T & KS-1Q,2016-066G,2026-05-09T04:12:36.878112,14.44586658,.0340947,98.3825,205.3528,247.8597,108.6082,0,U,41847,999,49916,.95942E-4,.611E-5,0
YUNHAI-1 01,2016-068A,2026-05-09T04:43:15.472704,14.32711584,.0006037,98.5852,140.5652,138.6002,221.5641,0,U,41857,999,49624,.10502E-3,.242E-5,0
RESOURCESAT-2A,2016-074A,2026-05-09T05:16:20.357184,14.21603611,.0002313,98.7527,203.0400,160.7429,199.3836,0,U,41877,999,48876,-.70147E-4,-.198E-5,0
TANSAT,2016-081A,2026-05-09T04:23:08.249568,14.59917960,.0021864,98.5374,128.2901,70.6057,289.7503,0,U,41898,999,49893,.11454E-3,.5E-5,0
JILIN-1 03,2017-002B,2026-05-09T04:42:43.267968,15.40645567,.0004255,97.1967,136.8586,331.9219,28.1798,0,U,41914,999,51585,.25785E-3,.10431E-3,0
CARTOSAT-2D,2017-008A,2026-05-09T04:01:06.129984,15.19203051,.0005163,97.4126,189.1949,29.9063,330.2466,0,U,41948,999,51165,.24438E-3,.5078E-4,0
